0 ARIANE 2 DEB
1 27593U 88040C   13280.80700811 -.00000021  00000-0  25721-3 0  8314
2 27593 007.8117 015.0149 7171173 109.8244 316.3180 02.28644867 93569
0 ARIANE 2 DEB
1 27593U 88040C   13283.48147242  .00000021  00000-0  59785-3 0  8321
2 27593 007.8114 014.0139 7170739 111.8290 357.7200 02.28644815 93627
0 ARIANE 2 DEB
1 27593U 88040C   13285.68061896  .00000035  00000-0  48352-3 0  8339
2 27593 007.8111 013.1876 7170393 113.4787 007.8715 02.28645342 93672
0 ARIANE 2 DEB
1 27593U 88040C   13287.80215139  .00000027  00000-0  24490-3 0  8345
2 27593 007.8107 012.3885 7170056 115.0711 314.1400 02.28646220 93726
0 ARIANE 2 DEB
1 27593U 88040C   13291.34966214 -.00000089  00000-0 -27185-3 0  8351
2 27593 007.8100 011.0522 7169692 117.7312 354.1703 02.28647214 93806
0 ARIANE 2 DEB
1 27593U 88040C   13293.97305671 -.00000190  00000-0 -60250-3 0  8360
2 27593 007.8093 010.0653 7169444 119.6969 353.5458 02.28647654 93869
